CCSDS_OMM_VERS = 2.0
CREATION_DATE  = 
ORIGINATOR     = 

OBJECT_NAME    = ISS OBJECT XW
OBJECT_ID      = 1998-067XW
CENTER_NAME    = EARTH
REF_FRAME      = TEME
TIME_SYSTEM    = UTC
MEAN_ELEMENT_THEORY = SGP/SGP4

EPOCH          = 2026-03-03T10:59:07.056384
MEAN_MOTION    = 15.66680726
ECCENTRICITY   = .000487
INCLINATION    = 51.6243
RA_OF_ASC_NODE = 97.2785
ARG_OF_PERICENTER = 51.9689
MEAN_ANOMALY   = 308.1746

EPHEMERIS_TYPE = 0
CLASSIFICATION_TYPE = U
NORAD_CAT_ID   = 66910
ELEMENT_SET_NO = 999
REV_AT_EPOCH   = 1420
BSTAR          = .12184E-2
MEAN_MOTION_DOT = .132206E-2
MEAN_MOTION_DDOT = 0

CCSDS_OMM_VERS = 2.0
CREATION_DATE  = 
ORIGINATOR     = 

OBJECT_NAME    = ISS OBJECT XX
OBJECT_ID      = 1998-067XX
CENTER_NAME    = EARTH
REF_FRAME      = TEME
TIME_SYSTEM    = UTC
MEAN_ELEMENT_THEORY = SGP/SGP4

EPOCH          = 2026-03-03T10:04:32.555136
MEAN_MOTION    = 15.72076747
ECCENTRICITY   = .0006927
INCLINATION    = 51.6218
RA_OF_ASC_NODE = 96.2644
ARG_OF_PERICENTER = 45.3691
MEAN_ANOMALY   = 314.7871

EPHEMERIS_TYPE = 0
CLASSIFICATION_TYPE = U
NORAD_CAT_ID   = 66911
ELEMENT_SET_NO = 999
REV_AT_EPOCH   = 1420
BSTAR          = .16402E-2
MEAN_MOTION_DOT = .225432E-2
MEAN_MOTION_DDOT = 0

CCSDS_OMM_VERS = 2.0
CREATION_DATE  = 
ORIGINATOR     = 

OBJECT_NAME    = ISS OBJECT XY
OBJECT_ID      = 1998-067XY
CENTER_NAME    = EARTH
REF_FRAME      = TEME
TIME_SYSTEM    = UTC
MEAN_ELEMENT_THEORY = SGP/SGP4

EPOCH          = 2026-03-03T07:34:46.630272
MEAN_MOTION    = 15.62356640
ECCENTRICITY   = .0002831
INCLINATION    = 51.6268
RA_OF_ASC_NODE = 99.3453
ARG_OF_PERICENTER = 54.0828
MEAN_ANOMALY   = 306.0429

EPHEMERIS_TYPE = 0
CLASSIFICATION_TYPE = U
NORAD_CAT_ID   = 66912
ELEMENT_SET_NO = 999
REV_AT_EPOCH   = 1415
BSTAR          = .96247E-3
MEAN_MOTION_DOT = .87307E-3
MEAN_MOTION_DDOT = 0

CCSDS_OMM_VERS = 2.0
CREATION_DATE  = 
ORIGINATOR     = 

OBJECT_NAME    = ISS OBJECT XZ
OBJECT_ID      = 1998-067XZ
CENTER_NAME    = EARTH
REF_FRAME      = TEME
TIME_SYSTEM    = UTC
MEAN_ELEMENT_THEORY = SGP/SGP4

EPOCH          = 2026-03-03T09:58:19.785792
MEAN_MOTION    = 15.51247194
ECCENTRICITY   = .0009504
INCLINATION    = 51.6308
RA_OF_ASC_NODE = 103.0125
ARG_OF_PERICENTER = 164.7935
MEAN_ANOMALY   = 195.3341

EPHEMERIS_TYPE = 0
CLASSIFICATION_TYPE = U
NORAD_CAT_ID   = 67683
ELEMENT_SET_NO = 999
REV_AT_EPOCH   = 381
BSTAR          = .67495E-3
MEAN_MOTION_DOT = .4007E-3
MEAN_MOTION_DDOT = 0

CCSDS_OMM_VERS = 2.0
CREATION_DATE  = 
ORIGINATOR     = 

OBJECT_NAME    = GXIBA-1
OBJECT_ID      = 1998-067YA
CENTER_NAME    = EARTH
REF_FRAME      = TEME
TIME_SYSTEM    = UTC
MEAN_ELEMENT_THEORY = SGP/SGP4

EPOCH          = 2026-03-03T06:26:38.282496
MEAN_MOTION    = 15.53164734
ECCENTRICITY   = .0010978
INCLINATION    = 51.6298
RA_OF_ASC_NODE = 103.5313
ARG_OF_PERICENTER = 154.9471
MEAN_ANOMALY   = 205.2054

EPHEMERIS_TYPE = 0
CLASSIFICATION_TYPE = U
NORAD_CAT_ID   = 67684
ELEMENT_SET_NO = 999
REV_AT_EPOCH   = 379
BSTAR          = .11656E-2
MEAN_MOTION_DOT = .74906E-3
MEAN_MOTION_DDOT = 0

CCSDS_OMM_VERS = 2.0
CREATION_DATE  = 
ORIGINATOR     = 

OBJECT_NAME    = CORAL
OBJECT_ID      = 1998-067YB
CENTER_NAME    = EARTH
REF_FRAME      = TEME
TIME_SYSTEM    = UTC
MEAN_ELEMENT_THEORY = SGP/SGP4

EPOCH          = 2026-03-03T09:53:50.609184
MEAN_MOTION    = 15.51543478
ECCENTRICITY   = .0011498
INCLINATION    = 51.6313
RA_OF_ASC_NODE = 102.9911
ARG_OF_PERICENTER = 160.9384
MEAN_ANOMALY   = 199.2038

EPHEMERIS_TYPE = 0
CLASSIFICATION_TYPE = U
NORAD_CAT_ID   = 67685
ELEMENT_SET_NO = 999
REV_AT_EPOCH   = 381
BSTAR          = .75392E-3
MEAN_MOTION_DOT = .45363E-3
MEAN_MOTION_DDOT = 0

CCSDS_OMM_VERS = 2.0
CREATION_DATE  = 
ORIGINATOR     = 

OBJECT_NAME    = ISS OBJECT YC
OBJECT_ID      = 1998-067YC
CENTER_NAME    = EARTH
REF_FRAME      = TEME
TIME_SYSTEM    = UTC
MEAN_ELEMENT_THEORY = SGP/SGP4

EPOCH          = 2026-03-03T09:48:37.761696
MEAN_MOTION    = 15.51946136
ECCENTRICITY   = .0007753
INCLINATION    = 51.6308
RA_OF_ASC_NODE = 102.9692
ARG_OF_PERICENTER = 129.1230
MEAN_ANOMALY   = 231.0450

EPHEMERIS_TYPE = 0
CLASSIFICATION_TYPE = U
NORAD_CAT_ID   = 67686
ELEMENT_SET_NO = 999
REV_AT_EPOCH   = 381
BSTAR          = .84429E-3
MEAN_MOTION_DOT = .51568E-3
MEAN_MOTION_DDOT = 0

CCSDS_OMM_VERS = 2.0
CREATION_DATE  = 
ORIGINATOR     = 

OBJECT_NAME    = LEOPARD
OBJECT_ID      = 1998-067YD
CENTER_NAME    = EARTH
REF_FRAME      = TEME
TIME_SYSTEM    = UTC
MEAN_ELEMENT_THEORY = SGP/SGP4

EPOCH          = 2026-03-03T09:55:53.940000
MEAN_MOTION    = 15.51386771
ECCENTRICITY   = .0007736
INCLINATION    = 51.6311
RA_OF_ASC_NODE = 103.0024
ARG_OF_PERICENTER = 132.4796
MEAN_ANOMALY   = 227.6848

EPHEMERIS_TYPE = 0
CLASSIFICATION_TYPE = U
NORAD_CAT_ID   = 67687
ELEMENT_SET_NO = 999
REV_AT_EPOCH   = 373
BSTAR          = .71815E-3
MEAN_MOTION_DOT = .4287E-3
MEAN_MOTION_DDOT = 0

CCSDS_OMM_VERS = 2.0
CREATION_DATE  = 
ORIGINATOR     = 

OBJECT_NAME    = ISS OBJECT YE
OBJECT_ID      = 1998-067YE
CENTER_NAME    = EARTH
REF_FRAME      = TEME
TIME_SYSTEM    = UTC
MEAN_ELEMENT_THEORY = SGP/SGP4

EPOCH          = 2026-03-03T09:50:56.473440
MEAN_MOTION    = 15.51755615
ECCENTRICITY   = .00077
INCLINATION    = 51.6313
RA_OF_ASC_NODE = 102.9800
ARG_OF_PERICENTER = 129.5648
MEAN_ANOMALY   = 230.6023

EPHEMERIS_TYPE = 0
CLASSIFICATION_TYPE = U
NORAD_CAT_ID   = 67688
ELEMENT_SET_NO = 999
REV_AT_EPOCH   = 373
BSTAR          = .81368E-3
MEAN_MOTION_DOT = .49325E-3
MEAN_MOTION_DDOT = 0

CCSDS_OMM_VERS = 2.0
CREATION_DATE  = 
ORIGINATOR     = 

OBJECT_NAME    = CREW DRAGON 12
OBJECT_ID      = 2026-031A
CENTER_NAME    = EARTH
REF_FRAME      = TEME
TIME_SYSTEM    = UTC
MEAN_ELEMENT_THEORY = SGP/SGP4

EPOCH          = 2026-03-03T10:43:29.273376
MEAN_MOTION    = 15.48418100
ECCENTRICITY   = .0008211
INCLINATION    = 51.6317
RA_OF_ASC_NODE = 103.2200
ARG_OF_PERICENTER = 152.5429
MEAN_ANOMALY   = 207.5995

EPHEMERIS_TYPE = 0
CLASSIFICATION_TYPE = U
NORAD_CAT_ID   = 67796
ELEMENT_SET_NO = 999
REV_AT_EPOCH   = 55510
BSTAR          = .1818E-3
MEAN_MOTION_DOT = .9386E-4
MEAN_MOTION_DDOT = 0

